[{"OBJECT_NAME":"HAWK-7C","OBJECT_ID":"2023-054Y","EPOCH":"2026-03-09T16:32:02.440032","MEAN_MOTION":15.26207266,"ECCENTRICITY":0.00036507,"INCLINATION":97.2829,"RA_OF_ASC_NODE":317.5849,"ARG_OF_PERICENTER":52.209,"MEAN_ANOMALY":307.9479,"EPHEMERIS_TYPE":0,"CLASSIFICATION_TYPE":"U","NORAD_CAT_ID":56200,"ELEMENT_SET_NO":999,"REV_AT_EPOCH":16184,"BSTAR":0.0003098019,"MEAN_MOTION_DOT":7.947e-5,"MEAN_MOTION_DDOT":0},{"OBJECT_NAME":"STARLINK-32615","OBJECT_ID":"2024-216C","EPOCH":"2026-03-09T19:35:17.856960","MEAN_MOTION":15.2755379,"ECCENTRICITY":0.00029463,"INCLINATION":43.0001,"RA_OF_ASC_NODE":255.7206,"ARG_OF_PERICENTER":281.4764,"MEAN_ANOMALY":78.5756,"EPHEMERIS_TYPE":0,"CLASSIFICATION_TYPE":"U","NORAD_CAT_ID":62034,"ELEMENT_SET_NO":999,"REV_AT_EPOCH":7273,"BSTAR":0.00067424079,"MEAN_MOTION_DOT":0.00018324,"MEAN_MOTION_DDOT":0}]
